     2.10           N: GPS NAV DATA                         RINEX VERSION / TYPE
teqc  2011Oct11     IGN-E (SPG)         20150127 12:06:34UTCPGM / RUN BY / DATE
Linux 2.4.21-27.ELsmp|Opteron|gcc -static|Linux x86_64|=+   COMMENT
                                                            END OF HEADER
 1 15  1 27 12  0  0.0-9.700190275908D-06 4.547473508865D-13 0.000000000000D+00
    2.900000000000D+01-2.462500000000D+01 4.847344747816D-09-2.813133316900D+00
   -1.333653926849D-06 3.815290052444D-03 6.955116987228D-06 5.153663551331D+03
    2.160000000000D+05-5.401670932770D-08 2.031625990406D-01-8.195638656616D-08
    9.620846018625D-01 2.460625000000D+02 4.184757567721D-01-8.118909988752D-09
    3.357282854499D-11 1.000000000000D+00 1.829000000000D+03 0.000000000000D+00
    2.000000000000D+00 0.000000000000D+00 5.587935447693D-09 2.900000000000D+01
    2.124000000000D+05
 2 15  1 27 12  0  0.0 5.443505942822D-04 2.273736754432D-12 0.000000000000D+00
    6.000000000000D+01-3.596875000000D+01 5.282005943741D-09-2.187664729954D+00
   -1.834705471992D-06 1.427598611917D-02 6.278976798058D-06 5.153755008698D+03
    2.160000000000D+05 2.440065145493D-07 1.682207568297D-01-7.450580596924D-08
    9.406871749852D-01 2.445000000000D+02-2.332701740379D+00-8.299274156798D-09
    1.885792771938D-10 1.000000000000D+00 1.829000000000D+03 0.000000000000D+00
    2.000000000000D+00 0.000000000000D+00-2.048909664154D-08 6.000000000000D+01
    2.124000000000D+05
 3 15  1 27 12  0  0.0 1.744832843542D-04 2.307842805749D-11 0.000000000000D+00
    3.700000000000D+01 7.187500000000D-01 4.582333623659D-09-4.274643935849D-01
   -4.097819328308D-08 9.585374500602D-04 1.031905412674D-05 5.153759618759D+03
    2.160000000000D+05 5.587935447693D-09 1.243500214787D+00-2.607703208923D-08
    9.591389899774D-01 1.773125000000D+02-3.014217211754D+00-7.983547156698D-09
   -3.264421788440D-10 1.000000000000D+00 1.829000000000D+03 0.000000000000D+00
    2.000000000000D+00 0.000000000000D+00 1.396983861923D-09 3.700000000000D+01
    2.124000000000D+05
 4 15  1 27 12  0  0.0-6.251502782106D-06-5.684341886081D-13 0.000000000000D+00
    9.200000000000D+01-2.712500000000D+01 5.327007723821D-09-2.986932787477D+00
   -1.451000571251D-06 1.100126060192D-02 6.524845957756D-06 5.153728904724D+03
    2.160000000000D+05 1.136213541031D-07 1.836400421220D-01-1.788139343262D-07
    9.397163606041D-01 2.394375000000D+02 1.051013207764D+00-8.281059393767D-09
    4.964492358872D-11 1.000000000000D+00 1.829000000000D+03 0.000000000000D+00
    2.000000000000D+00 0.000000000000D+00-6.519258022308D-09 9.200000000000D+01
    2.124000000000D+05
 5 15  1 27  2  0  0.0-2.873982302845D-04 5.229594535194D-12 0.000000000000D+00
    2.600000000000D+01-2.562500000000D+00 4.738768932810D-09 1.175248858747D+00
    3.725290298462D-09 4.040638101287D-03 1.037307083607D-05 5.153762247086D+03
    1.800000000000D+05-1.210719347000D-07 1.238332882381D+00 1.303851604462D-08
    9.464324185491D-01 1.722812500000D+02 4.244547044250D-01-8.081050495434D-09
   -1.746501276934D-10 1.000000000000D+00 1.829000000000D+03 0.000000000000D+00
    2.000000000000D+00 0.000000000000D+00-1.071020960808D-08 2.600000000000D+01
    2.124000000000D+05
 6 15  1 27 12  0  0.0 6.369827315211D-05 1.159605744760D-11 0.000000000000D+00
    2.400000000000D+01-2.806250000000D+01 4.890917892908D-09-1.234213761500D-01
   -1.372769474983D-06 4.192285705358D-04 6.577000021935D-06 5.153679933548D+03
    2.160000000000D+05-1.490116119385D-08 1.946321203748D-01 4.842877388000D-08
    9.619886534545D-01 2.547812500000D+02 2.508491990840D+00-8.201412882158D-09
    5.428797689166D-11 1.000000000000D+00 1.829000000000D+03 0.000000000000D+00
    2.000000000000D+00 0.000000000000D+00 4.656612873077D-09 2.400000000000D+01
    2.124000000000D+05
 7 15  1 27 12  0  0.0 4.351674579084D-04 3.296918293927D-12 0.000000000000D+00
    8.600000000000D+01 1.856250000000D+01 4.361967231858D-09 2.918953818006D+00
    9.387731552124D-07 7.984507363290D-03 4.354864358902D-06 5.153737512589D+03
    2.160000000000D+05-7.823109626770D-08-2.920002307485D+00-2.793967723846D-08
    9.716977159787D-01 3.020000000000D+02-2.751743168074D+00-8.103194559794D-09
   -5.035924108276D-11 1.000000000000D+00 1.829000000000D+03 0.000000000000D+00
    2.800000000000D+00 0.000000000000D+00-1.117587089539D-08 8.600000000000D+01
    2.124000000000D+05
 8 15  1 27 12  0  0.0 1.731002703309D-05 1.136868377216D-13 0.000000000000D+00
    4.500000000000D+01-3.062500000000D+00 3.819444760467D-09-1.899118845534D+00
   -1.471489667892D-07 1.479080202989D-02 4.740431904793D-06 5.152212892532D+03
    2.160000000000D+05 3.725290298462D-08-2.815256934134D+00-1.881271600723D-07
    9.952375629764D-01 3.061875000000D+02-2.671110128378D+00-7.838897531087D-09
    5.000208233574D-11 1.000000000000D+00 1.829000000000D+03 0.000000000000D+00
    2.000000000000D+00 1.000000000000D+00-5.122274160385D-09 4.500000000000D+01
    2.124000000000D+05
 9 15  1 27 12  0  0.0-6.812578067183D-05-1.216449163621D-11 0.000000000000D+00
    1.320000000000D+02 8.246875000000D+01 4.528760033651D-09-1.035054405599D+00
    4.215165972710D-06 3.242455422878D-04 8.396804332733D-06 5.153667013168D+03
    2.160000000000D+05-7.450580596924D-09 2.288056832145D+00 3.725290298462D-09
    9.582584186238D-01 2.150625000000D+02 2.267236576190D+00-8.089622305363D-09
    2.035799133437D-11 1.000000000000D+00 1.829000000000D+03 0.000000000000D+00
    2.800000000000D+00 0.000000000000D+00 4.656612873077D-10 1.320000000000D+02
    2.124000000000D+05
10 15  1 27 12  0  0.0-1.606279984117D-04-1.705302565824D-12 0.000000000000D+00
    2.500000000000D+01-5.875000000000D+00 5.125213586865D-09 4.916528706298D-01
   -7.450580596924D-09 1.453361287713D-02 9.564682841301D-06 5.153655223846D+03
    2.160000000000D+05-2.160668373108D-07 1.253848056102D+00 1.657754182816D-07
    9.412073257487D-01 1.858750000000D+02 9.193809786052D-01-8.432136766601D-09
   -3.764442646492D-10 1.000000000000D+00 1.829000000000D+03 0.000000000000D+00
    2.000000000000D+00 0.000000000000D+00-3.259629011154D-09 2.500000000000D+01
    2.124000000000D+05
11 15  1 27 12  0  0.0-5.537359975278D-04-2.614797267597D-12 0.000000000000D+00
    5.300000000000D+01-1.559375000000D+01 6.364908156087D-09 2.988385813304D+00
   -9.052455425262D-07 1.560529950075D-02 5.830079317093D-06 5.153720235825D+03
    2.160000000000D+05 2.142041921616D-07-1.386740482393D-01-1.881271600723D-07
    8.925876603160D-01 2.266562500000D+02 1.377926386336D+00-8.727149669596D-09
    1.921508646641D-10 1.000000000000D+00 1.829000000000D+03 0.000000000000D+00
    2.000000000000D+00 0.000000000000D+00-1.210719347000D-08 5.300000000000D+01
    2.124000000000D+05
12 15  1 27  2  0  0.0 2.645417116582D-04 3.069544618484D-12 0.000000000000D+00
    6.300000000000D+01-3.659375000000D+01 3.795157965669D-09-2.783475894669D+00
   -1.959502696991D-06 5.204055458307D-03 8.640810847282D-06 5.153749652863D+03
    1.800000000000D+05-5.960464477539D-08-1.853112196098D+00-1.285225152969D-07
    9.889993701478D-01 2.251875000000D+02 5.027202950153D-01-7.717821048914D-09
   -3.321566979797D-11 1.000000000000D+00 1.829000000000D+03 0.000000000000D+00
    2.000000000000D+00 0.000000000000D+00-1.257285475731D-08 6.300000000000D+01
    2.124000000000D+05
13 15  1 26 22  0  0.0-8.248491212726D-05-3.524291969370D-12 0.000000000000D+00
    6.000000000000D+00 7.337500000000D+01 4.401611963800D-09 2.587834957690D+00
    3.751367330551D-06 5.352643784136D-03 6.470829248428D-06 5.153687894821D+03
    1.656000000000D+05 8.940696716309D-08 2.401701702322D+00 5.029141902924D-08
    9.751264872808D-01 2.617500000000D+02 2.068902341195D+00-7.996404427502D-09
    4.893060956412D-11 1.000000000000D+00 1.829000000000D+03 0.000000000000D+00
    2.000000000000D+00 0.000000000000D+00-1.164153218269D-08 6.000000000000D+00
    2.124000000000D+05
14 15  1 27 10  0  0.0 9.299488738179D-05-3.524291969370D-12 0.000000000000D+00
    1.100000000000D+01 9.240625000000D+01 4.341966786114D-09-1.827768266822D+00
    4.747882485390D-06 7.736529456452D-03 7.815659046173D-06 5.153778961182D+03
    2.088000000000D+05 2.551823854446D-07 2.367566930072D+00-5.029141902924D-08
    9.676103594382D-01 2.336250000000D+02-1.970534727447D+00-7.949616964709D-09
    6.321691781164D-11 1.000000000000D+00 1.829000000000D+03 0.000000000000D+00
    2.000000000000D+00 0.000000000000D+00-9.313225746155D-09 1.100000000000D+01
    2.124000000000D+05
15 15  1 26 22  0  0.0-2.286569215357D-04-2.273736754432D-12 0.000000000000D+00
    7.800000000000D+01 7.868750000000D+01 5.316292739366D-09-2.500280614106D+00
    3.894791007042D-06 7.041429984383D-03 7.130205631256D-06 5.153584495544D+03
    1.656000000000D+05-1.490116119385D-08 2.247811415968D+00-1.024454832077D-07
    9.341538676925D-01 2.305937500000D+02 3.661127941131D-01-8.430708575702D-09
    1.546492933713D-10 1.000000000000D+00 1.829000000000D+03 0.000000000000D+00
    2.000000000000D+00 0.000000000000D+00-1.071020960808D-08 7.800000000000D+01
    2.124000000000D+05
16 15  1 27  7 59 44.0-1.615299843252D-04 3.183231456205D-12 0.000000000000D+00
    1.000000000000D+01-5.059375000000D+01 3.864089492822D-09-1.769733082155D+00
   -2.898275852203D-06 7.991586346179D-03 8.080154657364D-06 5.153737964630D+03
    2.015840000000D+05 1.303851604462D-08-1.834631895165D+00-1.247972249985D-07
    9.895549674164D-01 2.380625000000D+02 2.326092528119D-01-7.752108288628D-09
    1.142904729190D-10 1.000000000000D+00 1.829000000000D+03 0.000000000000D+00
    2.000000000000D+00 0.000000000000D+00-1.024454832077D-08 1.000000000000D+01
    2.124000000000D+05
